FLOCK 4S-5              
1 47515U 21006DF  22344.74741566  .00018058  00000+0  84417-3 0  9994
2 47515  97.4129  39.8837 0008618  45.7459 314.4482 15.19803527103990
FLOCK 4S-16             
1 47516U 21006DG  22344.69040609  .00025150  00000+0  11615-2 0  9999
2 47516  97.4252  40.8799 0008216  41.9528 318.2335 15.20157380104942
FLOCK 4S-6              
1 47518U 21006DJ  22345.15300682  .00011373  00000+0  53188-3 0  9997
2 47518  97.4151  40.3734 0008466  46.1237 314.0695 15.19898282105021
FLOCK 4S-29             
1 47520U 21006DL  22344.68944853  .00020292  00000+0  94872-3 0  9996
2 47520  97.4155  39.9777 0008075  46.0636 314.1264 15.19778471103980
FLOCK 4S-15             
1 47521U 21006DM  22345.13371373  .00023339  00000+0  11347-2 0  9999
2 47521  97.4262  40.7407 0007966  47.3109 312.8795 15.18392793104980
FLOCK 4S-37             
1 47522U 21006DN  22345.15735178  .00011662  00000+0  54505-3 0  9999
2 47522  97.4243  41.2024 0008151  45.4042 314.7856 15.19917087105028
FLOCK 4S-10             
1 47523U 21006DP  22344.73515862  .00014839  00000+0  69617-3 0  9998
2 47523  97.4179  40.1170 0008260  50.5076 309.6888 15.19727190103987
FLOCK 4S-7              
1 47527U 21006DT  22344.69861378  .00006831  00000+0  32207-3 0  9991
2 47527  97.4147  39.9139 0008213  46.9499 313.2423 15.19776540104949
FLOCK 4S-14             
1 47528U 21006DU  22345.16618724  .00012205  00000+0  57153-3 0  9999
2 47528  97.4244  41.2169 0008147  45.7648 314.4254 15.19837494105016
FLOCK 4S-36             
1 47530U 21006DW  22344.70629492  .00007189  00000+0  33840-3 0  9997
2 47530  97.4234  40.6755 0007833  45.9778 314.2102 15.19818101104944
FLOCK 4S-24             
1 47539U 21006DZ  22345.10484501  .00007159  00000+0  33746-3 0  9993
2 47539  97.4180  40.8904 0010642  27.3971 332.7823 15.19744661104069
FLOCK 4S-20             
1 47540U 21006EA  22344.70919364  .00006791  00000+0  32040-3 0  9997
2 47540  97.4238  40.9955 0010009  29.8462 330.3342 15.19739188103079
FLOCK 4S-25             
1 47542U 21006EC  22344.71674720  .00012842  00000+0  60232-3 0  9992
2 47542  97.4159  40.3079 0010292  30.6221 329.5612 15.19752691103075
FLOCK 4S-1              
1 47543U 21006ED  22345.10979448  .00007650  00000+0  36010-3 0  9990
2 47543  97.4160  40.6894 0009748  27.0669 333.1072 15.19778455103130
FLOCK 4S-30             
1 47544U 21006EE  22345.15627266  .00011923  00000+0  55810-3 0  9991
2 47544  97.4157  40.4759 0007836  44.2790 315.9071 15.19859740105010
FLOCK 4S-23             
1 47545U 21006EF  22345.15185964  .00025253  00000+0  11700-2 0  9996
2 47545  97.4191  41.0767 0010331  28.5379 331.6419 15.20027860105043
FLOCK 4S-42             
1 47612U 21006EQ  22344.75488101  .00019253  00000+0  90079-3 0  9995
2 47612  97.4215  40.7630 0010699  42.8665 317.3402 15.19743889104006
FLOCK 4S-48             
1 47617U 21006EJ  22345.12357213  .00013790  00000+0  64230-3 0  9991
2 47617  97.4204  41.2330 0010884  21.6443 338.5250 15.19971293105040
FLOCK 4S-46             
1 47684U 21006EK  22344.74329503  .00013420  00000+0  62944-3 0  9993
2 47684  97.4210  40.7994 0008099  56.6708 303.5301 15.19758937104011
FLOCK 4S-47             
1 47685U 21006EL  22345.13501273  .00013753  00000+0  64355-3 0  9991
2 47685  97.4181  40.6025 0007050  49.8423 310.3428 15.19840880104045
FLOCK 4S-44             
1 47686U 21006EM  22344.73058963  .00023935  00000+0  11164-2 0  9992
2 47686  97.4224  40.8713 0011329  37.5869 322.6156 15.19797663104002
FLOCK 4S-43             
1 47687U 21006EN  22345.10811459  .00006817  00000+0  32170-3 0  9993
2 47687  97.4196  40.7549 0006861  36.5001 323.6700 15.19753092105015
FLOCK 4S-45             
1 47688U 21006EP  22344.72644611  .00006433  00000+0  30466-3 0  9995
2 47688  97.4209  40.3196 0010142  24.1874 335.9835 15.19628504104948
FLOCK 4S-41             
1 47698U 21006ER  22344.68871067  .00018486  00000+0  86367-3 0  9990
2 47698  97.4263  40.9352 0009917  36.5760 323.6150 15.19808841103989
FLOCK 4X-8              
1 50992U 22002J   22345.19123027  .00007479  00000+0  36346-3 0  9993
2 50992  97.4679  49.9700 0010982 171.8073 188.3343 15.18671594 50210
FLOCK 4X-44             
1 50994U 22002L   22345.13177490  .00017418  00000+0  83935-3 0  9992
2 50994  97.4685  49.9909 0010730 168.5889 191.5591 15.18741105 50205
FLOCK 4X-2              
1 50996U 22002N   22344.73477618  .00011543  00000+0  55807-3 0  9994
2 50996  97.4689  49.5607 0010967 172.9146 187.2245 15.18722289 50142
FLOCK 4X-20             
1 50997U 22002P   22345.19287448  .00012595  00000+0  60811-3 0  9995
2 50997  97.4614  50.0046 0012500 164.6911 195.4703 15.18729091 50214
FLOCK 4X-30             
1 51000U 22002S   22344.86436111  .00008035  00000+0  39003-3 0  9990
2 51000  97.4637  49.4503 0010997 164.2675 195.8903 15.18686225 50167
FLOCK 4X-22             
1 51003U 22002V   22345.18963086  .00017249  00000+0  83128-3 0  9999
2 51003  97.4673  49.9475 0010910 173.5032 186.6345 15.18739311 50217
FLOCK 4X-5              
1 51004U 22002W   22345.18768143  .00008072  00000+0  39150-3 0  9997
2 51004  97.4645  49.8301 0011392 164.6275 195.5308 15.18712401 50218
FLOCK 4X-41             
1 51005U 22002X   22344.72471695  .00010998  00000+0  53204-3 0  9996
2 51005  97.4632  49.3033 0011033 163.2954 196.8646 15.18713855 50148
FLOCK 4X-3              
1 51006U 22002Y   22345.18511854  .00010108  00000+0  48880-3 0  9997
2 51006  97.4687  50.0153 0011542 169.3190 190.8291 15.18743629 50215
FLOCK 4X-18             
1 51007U 22002Z   22345.18312561  .00018797  00000+0  90430-3 0  9992
2 51007  97.4637  49.8528 0011301 162.3769 197.7860 15.18777309 50211
FLOCK 4X-37             
1 51009U 22002AB  22344.72084891  .00007365  00000+0  35799-3 0  9991
2 51009  97.4697  49.6006 0011741 171.0646 189.0799 15.18662916 50141
FLOCK 4X-15             
1 51010U 22002AC  22345.17582712  .00010295  00000+0  49789-3 0  9998
2 51010  97.4696  50.0828 0011954 167.1016 193.0526 15.18729918 50210
FLOCK 4X-29             
1 51011U 22002AD  22345.17991265  .00008168  00000+0  39595-3 0  9996
2 51011  97.4648  49.8297 0011644 163.9703 196.1902 15.18723005 50210
FLOCK 4X-27             
1 51012U 22002AE  22344.71756461  .00017472  00000+0  84295-3 0  9998
2 51012  97.4701  49.5446 0011470 172.1756 187.9659 15.18692024 50146
FLOCK 4X-12             
1 51015U 22002AH  22345.10669491  .00013150  00000+0  63433-3 0  9991
2 51015  97.4688  49.9564 0012150 165.7302 194.4278 15.18754590 50203
FLOCK 4X-25             
1 51016U 22002AJ  22344.71584801  .00009612  00000+0  46557-3 0  9995
2 51016  97.4670  49.4908 0011568 174.8240 185.3115 15.18702904 50140
FLOCK 4X-1              
1 51017U 22002AK  22344.77529958  .00006973  00000+0  33879-3 0  9994
2 51017  97.4652  49.4797 0012068 167.1344 193.0201 15.18696096 50150
FLOCK 4X-42             
1 51018U 22002AL  22344.77806859  .00007032  00000+0  34148-3 0  9990
2 51018  97.4633  49.4103 0011866 163.3617 196.8009 15.18709576 50152
FLOCK 4X-16             
1 51020U 22002AN  22345.16880800  .00009448  00000+0  45748-3 0  9996
2 51020  97.4639  49.8204 0012090 162.1271 198.0391 15.18710397 50218
FLOCK 4X-38             
1 51023U 22002AR  22344.70678590  .00006766  00000+0  32892-3 0  9995
2 51023  97.4691  49.5924 0012222 169.8995 190.2487 15.18682644 50144
FLOCK 4X-32             
1 51024U 22002AS  22344.70527050  .00012174  00000+0  58770-3 0  9993
2 51024  97.4698  49.6124 0012289 166.2926 193.8644 15.18746582 50149
FLOCK 4X-26             
1 51026U 22002AU  22345.16285270  .00009714  00000+0  46972-3 0  9998
2 51026  97.4647  49.8881 0011952 166.3161 193.8399 15.18753143 50211
FLOCK 4X-43             
1 51027U 22002AV  22344.76901486  .00005608  00000+0  27322-3 0  9994
2 51027  97.4649  49.4767 0011653 164.0110 196.1495 15.18687535 50157
FLOCK 4X-13             
1 51028U 22002AW  22344.76597075  .00010054  00000+0  48593-3 0  9994
2 51028  97.4644  49.4750 0012099 163.4696 196.6935 15.18758644 50156
FLOCK 4X-39             
1 51029U 22002AX  22345.15500607  .00010775  00000+0  52108-3 0  9991
2 51029  97.4645  49.8766 0012122 160.7240 199.4455 15.18719179 50216
FLOCK 4X-17             
1 51035U 22002BD  22345.22397317  .00015135  00000+0  73076-3 0  9990
2 51035  97.4669  49.9456 0008257 169.1749 190.9665 15.18726291 50219
FLOCK 4X-10             
1 51037U 22002BF  22344.73806275  .00014280  00000+0  69020-3 0  9999
2 51037  97.4699  49.5870 0010779 171.1735 188.9690 15.18681276 50140
FLOCK 4X-36             
1 51039U 22002BH  22344.74113229  .00007540  00000+0  36620-3 0  9993
2 51039  97.4700  49.5746 0009439 171.6747 188.4646 15.18704735 50148
FLOCK 4X-21             
1 51040U 22002BJ  22345.14685032  .00015487  00000+0  74841-3 0  9992
2 51040  97.4668  49.8432 0008494 166.7602 193.3857 15.18688188 50202
FLOCK 4X-31             
1 51041U 22002BK  22344.75450792  .00007069  00000+0  34374-3 0  9996
2 51041  97.4637  49.3068 0008558 162.8473 197.3052 15.18692778 50147
FLOCK 4X-34             
1 51042U 22002BL  22345.14899773  .00010409  00000+0  50323-3 0  9991
2 51042  97.4691  49.9421 0008649 171.6107 188.5273 15.18771001 50201
FLOCK 4X-6              
1 51043U 22002BM  22345.15188678  .00010964  00000+0  53105-3 0  9995
2 51043  97.4673  49.8648 0008615 167.1378 193.0078 15.18692466 50206
FLOCK 4X-28             
1 51045U 22002BP  22344.74998894  .00019254  00000+0  92758-3 0  9998
2 51045  97.4643  49.3520 0009033 160.9962 199.1611 15.18744045 50148
FLOCK 4X-19             
1 51046U 22002BQ  22345.27599830  .00008679  00000+0  42091-3 0  9999
2 51046  97.4681  50.0363 0008690 169.0739 191.0686 15.18715171 50225
FLOCK 4X-9              
1 51047U 22002BR  22344.87734548  .00008098  00000+0  39276-3 0  9998
2 51047  97.4690  49.6809 0009085 173.1634 186.9726 15.18728491 50164
FLOCK 4X-35             
1 51048U 22002BS  22345.13872878  .00008178  00000+0  39708-3 0  9997
2 51048  97.4622  49.6565 0008669 164.0589 196.0920 15.18690619 50207
